H1 CPF 01  gfz 2022 03 16 01  5751 tandemx   
H2 1003001  6202 36605    2022 03 16 00 59 42 2022 03 21 00 00 42   120 1 1  0 0 0
H9
10 0 59658  55422.000000  0    5349560.741   4303780.216    560728.834
10 0 59658  55542.000000  0    5354454.822   4080302.586   1455376.392
10 0 59658  55662.000000  0    5261197.489   3786252.723   2324395.316
10 0 59658  55782.000000  0    5070234.251   3428478.944   3152478.192
10 0 59658  55902.000000  0    4783864.398   3014931.511   3925044.864
10 0 59658  56022.000000  0    4406213.804   2554486.060   4628504.509
10 0 59658  56142.000000  0    3943172.402   2056751.519   5250495.822
10 0 59658  56262.000000  0    3402295.447   1531868.595   5780105.421
10 0 59658  56382.000000  0    2792672.011    990300.352   6208055.403
10 0 59658  56502.000000  0    2124765.936    442621.651   6526858.711
10 0 59658  56622.000000  0    1410232.675   -100686.307   6730943.467
10 0 59658  56742.000000  0     661713.540   -629435.644   6816746.846
10 0 59658  56862.000000  0    -107389.933  -1133923.044   6782773.259
10 0 59658  56982.000000  0    -883156.098  -1605107.251   6629617.997
10 0 59658  57102.000000  0   -1651394.673  -2034771.226   6359956.230
10 0 59658  57222.000000  0   -2397904.194  -2415664.867   5978498.080
10 0 59658  57342.000000  0   -3108733.326  -2741628.068   5491913.833
10 0 59658  57462.000000  0   -3770445.883  -3007693.893   4908724.916
10 0 59658  57582.000000  0   -4370379.780  -3210166.585   4239158.458
10 0 59658  57702.000000  0   -4896894.441  -3346673.431   3494971.526
10 0 59658  57822.000000  0   -5339602.691  -3416189.704   2689247.356
10 0 59658  57942.000000  0   -5689583.161  -3419036.952   1836165.875
10 0 59658  58062.000000  0   -5939566.772  -3356853.594    950749.909
10 0 59658  58182.000000  0   -6084091.260  -3232536.958     48593.829
10 0 59658  58302.000000  0   -6119620.815  -3050159.486   -854418.957
10 0 59658  58422.000000  0   -6044627.326  -2814860.793  -1742405.661
10 0 59658  58542.000000  0   -5859628.964  -2532717.484  -2599772.470
10 0 59658  58662.000000  0   -5567187.840  -2210595.933  -3411493.742
10 0 59658  58782.000000  0   -5171867.421  -1855991.675  -4163378.230
10 0 59658  58902.000000  0   -4680151.198  -1476859.426  -4842316.064
10 0 59658  59022.000000  0   -4100325.636  -1081438.145  -5436503.296
10 0 59658  59142.000000  0   -3442329.601   -678074.733  -5935639.429
10 0 59658  59262.000000  0   -2717575.494   -275051.053  -6331095.126
10 0 59658  59382.000000  0   -1938746.309    119582.259  -6616049.653
10 0 59658  59502.000000  0   -1119571.615    498161.633  -6785596.946
10 0 59658  59622.000000  0    -274588.296    853554.348  -6836820.429
10 0 59658  59742.000000  0     581111.529   1179289.335  -6768837.002
10 0 59658  59862.000000  0    1432142.274   1469670.928  -6582812.230
10 0 59658  59982.000000  0    2263096.171   1719877.144  -6281944.160
10 0 59658  60102.000000  0    3058817.173   1926039.275  -5871414.029
10 0 59658  60222.000000  0    3804673.792   2085301.292  -5358305.133
10 0 59658  60342.000000  0    4486826.839   2195859.093  -4751492.440
10 0 59658  60462.000000  0    5092490.105   2256979.102  -4061500.639
10 0 59658  60582.000000  0    5610176.303   2268994.607  -3300330.993
10 0 59658  60702.000000  0    6029923.421   2233280.024  -2481260.917
10 0 59658  60822.000000  0    6343498.212   2152203.607  -1618616.918
10 0 59658  60942.000000  0    6544568.202   2029058.702   -727523.500
10 0 59658  61062.000000  0    6628839.241   1867974.703    176365.467
10 0 59658  61182.000000  0    6594151.992   1673809.397   1077149.247
10 0 59658  61302.000000  0    6440536.822   1452026.729   1958966.188
10 0 59658  61422.000000  0    6170226.554   1208561.619   2806283.050
10 0 59658  61542.000000  0    5787622.152    949675.288   3604177.087
10 0 59658  61662.000000  0    5299215.347    681805.859   4338605.819
10 0 59658  61782.000000  0    4713469.211    411417.463   4996656.752
10 0 59658  61902.000000  0    4040662.848    144852.574   5566775.366
10 0 59658  62022.000000  0    3292700.127   -111810.949   6038966.289
10 0 59658  62142.000000  0    2482890.027   -352892.130   6404962.432
10 0 59658  62262.000000  0    1625704.643   -573227.512   6658363.914
10 0 59658  62382.000000  0     736516.773   -768278.349   6794745.338
10 0 59658  62502.000000  0    -168678.792   -934222.014   6811727.974
10 0 59658  62622.000000  0   -1073552.955  -1068025.854   6709017.461
10 0 59658  62742.000000  0   -1961735.818  -1167502.693   6488407.759
10 0 59658  62862.000000  0   -2817111.019  -1231346.189   6153750.996
10 0 59658  62982.000000  0   -3624107.399  -1259146.140   5710896.069
10 0 59658  63102.000000  0   -4367986.392  -1251384.679   5167593.665
10 0 59658  63222.000000  0   -5035117.347  -1209412.949   4533366.329
10 0 59658  63342.000000  0   -5613235.125  -1135407.429   3819345.629
10 0 59658  63462.000000  0   -6091673.642  -1032307.162   3038079.019
10 0 59658  63582.000000  0   -6461571.517   -903733.392   2203311.158
10 0 59658  63702.000000  0   -6716047.495   -753893.368   1329740.652
10 0 59658  63822.000000  0   -6850336.758   -587470.396    432754.503
10 0 59658  63942.000000  0   -6861884.244   -409502.884   -471850.988
10 0 59658  64062.000000  0   -6750394.060   -225255.330  -1368157.460
10 0 59658  64182.000000  0   -6517832.143    -40084.648  -2240413.109
10 0 59658  64302.000000  0   -6168385.587    140693.856  -3073315.371
10 0 59658  64422.000000  0   -5708377.821    311938.907  -3852285.621
10 0 59658  64542.000000  0   -5146140.679    468810.090  -4563725.632
10 0 59658  64662.000000  0   -4491850.159    606885.518  -5195251.945
10 0 59658  64782.000000  0   -3757329.819    722268.487  -5735904.273
10 0 59658  64902.000000  0   -2955827.414    811679.764  -6176326.064
10 0 59658  65022.000000  0   -2101769.896    872534.230  -6508914.069
10 0 59658  65142.000000  0   -1210502.394    903001.630  -6727938.632
10 0 59658  65262.000000  0    -298013.874    902050.027  -6829631.505
10 0 59658  65382.000000  0     619343.220    869470.952  -6812242.332
10 0 59658  65502.000000  0    1525137.677    805886.257  -6676067.622
10 0 59658  65622.000000  0    2403148.285    712736.721  -6423447.517
10 0 59658  65742.000000  0    3237648.613    592252.602  -6058729.706
10 0 59658  65862.000000  0    4013684.968    447406.352  -5588201.662
10 0 59658  65982.000000  0    4717342.830    281847.346  -5019992.904
10 0 59658  66102.000000  0    5335999.987     99821.106  -4363946.715
10 0 59658  66222.000000  0    5858560.597    -93927.011  -3631459.860
10 0 59658  66342.000000  0    6275663.739   -294261.524  -2835293.351
10 0 59658  66462.000000  0    6579863.800   -495778.007  -1989356.707
10 0 59658  66582.000000  0    6765776.772   -692932.906  -1108466.386
10 0 59658  66702.000000  0    6830187.083   -880178.482   -208084.226
10 0 59658  66822.000000  0    6772112.840  -1052100.202    695958.775
10 0 59658  66942.000000  0    6592826.521  -1203552.991   1587748.675
10 0 59658  67062.000000  0    6295830.791  -1329793.010   2451577.499
10 0 59658  67182.000000  0    5886787.758  -1426600.417   3272229.957
10 0 59658  67302.000000  0    5373405.067  -1490390.534   4035258.075
10 0 59658  67422.000000  0    4765282.422  -1518311.663   4727240.270
10 0 59658  67542.000000  0    4073722.303  -1508325.188   5336018.822
10 0 59658  67662.000000  0    3311510.820  -1459266.913   5850912.647
10 0 59658  67782.000000  0    2492672.048  -1370889.410   6262901.158
10 0 59658  67902.000000  0    1632203.740  -1243884.127   6564776.376
10 0 59658  68022.000000  0     745798.127  -1079883.072   6751263.864
10 0 59658  68142.000000  0    -150447.228   -881438.955   6819109.061
10 0 59658  68262.000000  0   -1040321.827   -651985.252   6767129.140
10 0 59658  68382.000000  0   -1907794.020   -395776.913   6596231.835
10 0 59658  68502.000000  0   -2737298.351   -117811.852   6309400.556
10 0 59658  68622.000000  0   -3514014.623    176265.282   5911646.630
10 0 59658  68742.000000  0   -4224135.331    480275.400   5409927.738
10 0 59658  68862.000000  0   -4855116.274    787631.656   4813032.015
10 0 59658  68982.000000  0   -5395905.606   1091478.358   4131429.782
10 0 59658  69102.000000  0   -5837145.956   1384839.600   3377093.112
10 0 59658  69222.000000  0   -6171345.094   1660774.174   2563287.503
10 0 59658  69342.000000  0   -6393012.264   1912533.246   1704337.886
10 0 59658  69462.000000  0   -6498756.528   2133717.254    815372.720
10 0 59658  69582.000000  0   -6487342.917   2318428.312    -87950.026
10 0 59658  69702.000000  0   -6359704.356   2461412.855   -989727.436
10 0 59658  69822.000000  0   -6118909.893   2558191.639  -1874100.352
10 0 59658  69942.000000  0   -5770090.671   2605174.461  -2725540.540
10 0 59658  70062.000000  0   -5320323.648   2599755.886  -3529130.320
10 0 59658  70182.000000  0   -4778477.950   2540388.972  -4270826.438
10 0 59658  70302.000000  0   -4155029.305   2426636.583  -4937703.997
10 0 59658  70422.000000  0   -3461847.010   2259199.472  -5518175.691
10 0 59658  70542.000000  0   -2711960.657   2039921.418  -6002183.583
10 0 59658  70662.000000  0   -1919310.959   1771771.364  -6381363.598
10 0 59658  70782.000000  0   -1098487.610   1458802.508  -6649178.369
10 0 59658  70902.000000  0    -264463.098   1106090.125  -6801018.130
10 0 59658  71022.000000  0     567674.931    719649.540  -6834270.827
10 0 59658  71142.000000  0    1382989.123    306335.840  -6748363.768
10 0 59658  71262.000000  0    2166955.669   -126275.298  -6544773.009
10 0 59658  71382.000000  0    2905716.811   -570022.649  -6227000.195
10 0 59658  71502.000000  0    3586322.628  -1016308.903  -5800519.049
10 0 59658  71622.000000  0    4196956.129  -1456262.061  -5272690.022
10 0 59658  71742.000000  0    4727141.399  -1880908.025  -4652645.790
10 0 59658  71862.000000  0    5167929.444  -2281351.172  -3951144.198
99
